{
  "type": "FeatureCollection",
  "features": [
    {
      "type": "Feature",
      "properties": {
        "norad_id": 37238,
        "name": "INTELSAT 17 (IS-17)",
        "group": "intelsat",
        "lat": 0.003173175497592696,
        "lon": -60.76424823569035,
        "alt_km": 35775.11984032973,
        "timestamp": "2025-12-20T09:36:01.299535+00:00",
        "meta_object_name": "INTELSAT 17 (IS-17)",
        "meta_object_id": "2010-065B",
        "meta_epoch": "2025-12-20T03:16:20.835264",
        "meta_mean_motion": 1.00270943,
        "meta_eccentricity": 0.0002702,
        "meta_inclination": 0.0002,
        "meta_ra_of_asc_node": 96.184,
        "meta_arg_of_pericenter": 191.1984,
        "meta_mean_anomaly": 276.6789,
        "meta_ephemeris_type": 0,
        "meta_classification_type": "U",
        "meta_norad_cat_id": 37238,
        "meta_element_set_no": 999,
        "meta_rev_at_epoch": 5145,
        "meta_bstar": 0,
        "meta_mean_motion_dot": 2.3e-07,
        "meta_mean_motion_ddot": 0,
        "tle_line1": "1 37238U 10065B   25354.13635226  .00000023  00000+0  00000+0 0  9995",
        "tle_line2": "2 37238   0.0002  96.1840 0002702 191.1984 276.6789  1.00270943 51455"
      },
      "geometry": {
        "type": "Point",
        "coordinates": [
          -60.76424823569035,
          0.003173175497592696
        ]
      }
    },
    {
      "type": "Feature",
      "properties": {
        "norad_id": 37392,
        "name": "INTELSAT 28 (IS-28)",
        "group": "intelsat",
        "lat": 1.1907921953325586,
        "lon": -158.49558945362455,
        "alt_km": 35781.393327459606,
        "timestamp": "2025-12-20T09:36:01.299546+00:00",
        "meta_object_name": "INTELSAT 28 (IS-28)",
        "meta_object_id": "2011-016A",
        "meta_epoch": "2025-12-20T03:15:38.761056",
        "meta_mean_motion": 1.00270022,
        "meta_eccentricity": 0.0003682,
        "meta_inclination": 1.3426,
        "meta_ra_of_asc_node": 84.9767,
        "meta_arg_of_pericenter": 187.705,
        "meta_mean_anomaly": 193.5111,
        "meta_ephemeris_type": 0,
        "meta_classification_type": "U",
        "meta_norad_cat_id": 37392,
        "meta_element_set_no": 999,
        "meta_rev_at_epoch": 5149,
        "meta_bstar": 0,
        "meta_mean_motion_dot": -2.02e-06,
        "meta_mean_motion_ddot": 0,
        "tle_line1": "1 37392U 11016A   25354.13586529 -.00000202  00000+0  00000+0 0  9994",
        "tle_line2": "2 37392   1.3426  84.9767 0003682 187.7050 193.5111  1.00270022 51494"
      },
      "geometry": {
        "type": "Point",
        "coordinates": [
          -158.49558945362455,
          1.1907921953325586
        ]
      }
    },
    {
      "type": "Feature",
      "properties": {
        "norad_id": 37834,
        "name": "INTELSAT 18 (IS-18)",
        "group": "intelsat",
        "lat": 0.038842910234560546,
        "lon": 53.24486609359018,
        "alt_km": 35790.19819259808,
        "timestamp": "2025-12-20T09:36:01.299558+00:00",
        "meta_object_name": "INTELSAT 18 (IS-18)",
        "meta_object_id": "2011-056A",
        "meta_epoch": "2025-12-19T19:15:17.492256",
        "meta_mean_motion": 1.0027221,
        "meta_eccentricity": 0.00016561,
        "meta_inclination": 0.0348,
        "meta_ra_of_asc_node": 279.4074,
        "meta_arg_of_pericenter": 6.336,
        "meta_mean_anomaly": 271.7233,
        "meta_ephemeris_type": 0,
        "meta_classification_type": "U",
        "meta_norad_cat_id": 37834,
        "meta_element_set_no": 999,
        "meta_rev_at_epoch": 5201,
        "meta_bstar": 0,
        "meta_mean_motion_dot": 7.7e-07,
        "meta_mean_motion_ddot": 0,
        "tle_line1": "1 37834U 11056A   25353.80228579  .00000077  00000+0  00000+0 0  9999",
        "tle_line2": "2 37834   0.0348 279.4074 0001656   6.3360 271.7233  1.00272210 52019"
      },
      "geometry": {
        "type": "Point",
        "coordinates": [
          53.24486609359018,
          0.038842910234560546
        ]
      }
    },
    {
      "type": "Feature",
      "properties": {
        "norad_id": 38098,
        "name": "INTELSAT 22 (IS-22)",
        "group": "intelsat",
        "lat": -0.03304945833533096,
        "lon": -54.66584439583359,
        "alt_km": 35779.66099572429,
        "timestamp": "2025-12-20T09:36:01.299571+00:00",
        "meta_object_name": "INTELSAT 22 (IS-22)",
        "meta_object_id": "2012-011A",
        "meta_epoch": "2025-12-20T03:18:05.666112",
        "meta_mean_motion": 1.00270553,
        "meta_eccentricity": 0.0001812,
        "meta_inclination": 0.0147,
        "meta_ra_of_asc_node": 42.664,
        "meta_arg_of_pericenter": 234.5908,
        "meta_mean_anomaly": 293.3399,
        "meta_ephemeris_type": 0,
        "meta_classification_type": "U",
        "meta_norad_cat_id": 38098,
        "meta_element_set_no": 999,
        "meta_rev_at_epoch": 539,
        "meta_bstar": 0,
        "meta_mean_motion_dot": -3.4e-07,
        "meta_mean_motion_ddot": 0,
        "tle_line1": "1 38098U 12011A   25354.13756558 -.00000034  00000+0  00000+0 0  9998",
        "tle_line2": "2 38098   0.0147  42.6640 0001812 234.5908 293.3399  1.00270553  5395"
      },
      "geometry": {
        "type": "Point",
        "coordinates": [
          -54.66584439583359,
          -0.03304945833533096
        ]
      }
    },
    {
      "type": "Feature",
      "properties": {
        "norad_id": 38356,
        "name": "INTELSAT 19 (IS-19)",
        "group": "intelsat",
        "lat": 0.027888430604077908,
        "lon": 39.25254342510987,
        "alt_km": 35794.30603244466,
        "timestamp": "2025-12-20T09:36:01.299583+00:00",
        "meta_object_name": "INTELSAT 19 (IS-19)",
        "meta_object_id": "2012-030A",
        "meta_epoch": "2025-12-19T17:28:37.237728",
        "meta_mean_motion": 1.00271271,
        "meta_eccentricity": 0.00027409,
        "meta_inclination": 0.0115,
        "meta_ra_of_asc_node": 352.2924,
        "meta_arg_of_pericenter": 272.7431,
        "meta_mean_anomaly": 251.6929,
        "meta_ephemeris_type": 0,
        "meta_classification_type": "U",
        "meta_norad_cat_id": 38356,
        "meta_element_set_no": 999,
        "meta_rev_at_epoch": 4865,
        "meta_bstar": 0,
        "meta_mean_motion_dot": -3.2e-07,
        "meta_mean_motion_ddot": 0,
        "tle_line1": "1 38356U 12030A   25353.72820877 -.00000032  00000+0  00000+0 0  9994",
        "tle_line2": "2 38356   0.0115 352.2924 0002740 272.7431 251.6929  1.00271271 48658"
      },
      "geometry": {
        "type": "Point",
        "coordinates": [
          39.25254342510987,
          0.027888430604077908
        ]
      }
    },
    {
      "type": "Feature",
      "properties": {
        "norad_id": 38740,
        "name": "INTELSAT 20 (IS-20)",
        "group": "intelsat",
        "lat": -0.0033011979661023783,
        "lon": -58.24548157408594,
        "alt_km": 35793.342492569165,
        "timestamp": "2025-12-20T09:36:01.299595+00:00",
        "meta_object_name": "INTELSAT 20 (IS-20)",
        "meta_object_id": "2012-043A",
        "meta_epoch": "2025-12-20T03:17:05.763264",
        "meta_mean_motion": 1.00270363,
        "meta_eccentricity": 0.0003349,
        "meta_inclination": 0.0117,
        "meta_ra_of_asc_node": 103.5578,
        "meta_arg_of_pericenter": 78.8397,
        "meta_mean_anomaly": 24.344,
        "meta_ephemeris_type": 0,
        "meta_classification_type": "U",
        "meta_norad_cat_id": 38740,
        "meta_element_set_no": 999,
        "meta_rev_at_epoch": 4895,
        "meta_bstar": 0,
        "meta_mean_motion_dot": 0,
        "meta_mean_motion_ddot": 0,
        "tle_line1": "1 38740U 12043A   25354.13687226  .00000000  00000+0  00000+0 0  9994",
        "tle_line2": "2 38740   0.0117 103.5578 0003349  78.8397  24.3440  1.00270363 48958"
      },
      "geometry": {
        "type": "Point",
        "coordinates": [
          -58.24548157408594,
          -0.0033011979661023783
        ]
      }
    },
    {
      "type": "Feature",
      "properties": {
        "norad_id": 38749,
        "name": "INTELSAT 21 (IS-21)",
        "group": "intelsat",
        "lat": -0.02269308601725811,
        "lon": 175.21244439222806,
        "alt_km": 35785.35924341271,
        "timestamp": "2025-12-20T09:36:01.299607+00:00",
        "meta_object_name": "INTELSAT 21 (IS-21)",
        "meta_object_id": "2012-045A",
        "meta_epoch": "2025-12-20T03:31:38.627040",
        "meta_mean_motion": 1.00272413,
        "meta_eccentricity": 0.0001495,
        "meta_inclination": 0.0263,
        "meta_ra_of_asc_node": 288.1597,
        "meta_arg_of_pericenter": 331.7134,
        "meta_mean_anomaly": 184.0219,
        "meta_ephemeris_type": 0,
        "meta_classification_type": "U",
        "meta_norad_cat_id": 38749,
        "meta_element_set_no": 999,
        "meta_rev_at_epoch": 4873,
        "meta_bstar": 0,
        "meta_mean_motion_dot": -2.61e-06,
        "meta_mean_motion_ddot": 0,
        "tle_line1": "1 38749U 12045A   25354.14697485 -.00000261  00000+0  00000+0 0  9994",
        "tle_line2": "2 38749   0.0263 288.1597 0001495 331.7134 184.0219  1.00272413 48732"
      },
      "geometry": {
        "type": "Point",
        "coordinates": [
          175.21244439222806,
          -0.02269308601725811
        ]
      }
    }
  ]
}